[{"OBJECT_NAME":"YAOGAN-9 01B","OBJECT_ID":"2010-009B","EPOCH":"2026-03-09T21:36:43.133472","MEAN_MOTION":13.45689777,"ECCENTRICITY":0.05298959,"INCLINATION":63.3654,"RA_OF_ASC_NODE":254.758,"ARG_OF_PERICENTER":20.1216,"MEAN_ANOMALY":341.9863,"EPHEMERIS_TYPE":0,"CLASSIFICATION_TYPE":"U","NORAD_CAT_ID":36414,"ELEMENT_SET_NO":999,"REV_AT_EPOCH":78638,"BSTAR":7.8644801e-5,"MEAN_MOTION_DOT":1.9e-7,"MEAN_MOTION_DDOT":0},{"OBJECT_NAME":"COSMOS 952 DEB","OBJECT_ID":"1977-088D","EPOCH":"2026-03-08T07:00:47.154816","MEAN_MOTION":13.85646724,"ECCENTRICITY":0.00348682,"INCLINATION":64.9378,"RA_OF_ASC_NODE":16.5348,"ARG_OF_PERICENTER":35.9557,"MEAN_ANOMALY":38.9984,"EPHEMERIS_TYPE":0,"CLASSIFICATION_TYPE":"U","NORAD_CAT_ID":44567,"ELEMENT_SET_NO":999,"REV_AT_EPOCH":62167,"BSTAR":0.0003060152,"MEAN_MOTION_DOT":2.63e-6,"MEAN_MOTION_DDOT":0}]
